#aV2012 10  4  0  0  0.00000000     288 DD+AD WGS84 FIT  NGA
## 1708 345600.00000000   300.00000000 56204 0.0000000000000
+   31     1  2  3  4  5  6  7  8  9 10 11 12 13 14 15 16 17
+         18 19 20 21 22 23 25 26 27 28 29 30 31 32  0  0  0
+          0  0  0  0  0  0  0  0  0  0  0  0  0  0  0  0  0
+          0  0  0  0  0  0  0  0  0  0  0  0  0  0  0  0  0
+          0  0  0  0  0  0  0  0  0  0  0  0  0  0  0  0  0
++         2  2  2  2  2  2  2  2  2  2  2  2  2  2  2  2  2
++         2  2  2  2  2  2  2  2  2  2  2  2  2  2  2  0  0
++         0  0  0  0  0  0  0  0  0  0  0  0  0  0  0  0  0
++         0  0  0  0  0  0  0  0  0  0  0  0  0  0  0  0  0
++         0  0  0  0  0  0  0  0  0  0  0  0  0  0  0  0  0
%c cc cc ccc ccc cccc cccc cccc cccc ccccc ccccc ccccc ccccc
%c cc cc ccc ccc cccc cccc cccc cccc ccccc ccccc ccccc ccccc
%f  0.0000000  0.000000000  0.00000000000  0.000000000000000
%f  0.0000000  0.000000000  0.00000000000  0.000000000000000
%i    0    0    0    0      0      0      0      0         0
%i    0    0    0    0      0      0      0      0         0
/*      NGA, ST. LOUIS,MO.                                  
/*   EPHEMERIS COMPUTED FROM  1 DAYS OF DATA
/*   EPOCHA SMOOTHER  
/* CCCCCCCCCCCCCCCCCCCCCCCCCCCCCCCCCCCCCCCCCCCCCCCCCCCCCCCCC
*  2012 10  4 19  0  0.00000000                                                 
P  1  20620.206199  10886.014740  12751.593867    276.375639                    
V  1   8601.021885  13914.288451 -25697.365975      0.016152                    
P  2 -12982.264017 -22570.675145   6614.904914    404.935966                    
V  2   7480.046702   4275.398959  29441.605019      0.011538                    
P  3  11212.468419  12785.323541 -20947.327893    110.262633                    
V  3 -24140.654367   8376.514255  -7751.431402      0.050284                    
P  4   -213.685647 -19939.015638  17128.353006      6.448688                    
V  4  16145.163595  15789.720141  18600.317878      0.112472                    
P  5  -5155.299833 -20095.447952 -16528.747404   -357.031822                    
V  5   9277.146487 -18991.412817  20357.472880     -0.028323                    
P  6   5234.576381  14817.747701 -21323.768273    492.857562                    
V  6 -26664.799448   6242.706150  -1877.744617     -0.092107                    
P  7  15956.650763  -2846.595271 -21064.387792    129.528731                    
V  7  16233.170222  21226.486011   9135.560992      0.044322                    
P  8   6982.386497 -14122.963243 -21167.751879      2.288380                    
V  8  15683.364671  22155.476197 -10141.536024      0.001398                    
P  9 -19905.028497 -15123.156027   8326.190454    190.077484                    
V  9  -5693.169278 -10016.995028 -29910.490628      0.025647                    
P 10   8383.045884 -24916.449384  -1847.123813    -54.081465                    
V 10   4149.153095   -583.327296  31554.912563     -0.014202                    
P 11  23402.960551  12161.064964   3872.134371   -309.437535                    
V 11   1802.008445   6986.097611 -29352.327016     -0.039110                    
P 12 -14517.362118  -3274.821239  21968.840729     94.412555                    
V 12  10168.417930 -25974.242760   3029.064681      0.020332                    
P 13  25567.011888  -5349.221511  -5268.022008    176.656696                    
V 13   6602.332133   1442.212611  31261.914479     -0.026045                    
P 14 -13591.422874  13784.982881  18311.709214    214.129438                    
V 14 -22889.389269    949.642262 -18040.346050      0.008309                    
P 15 -22022.062138  -5926.039346 -13805.955409    -96.623688                    
V 15  16693.813705  -5709.823353 -23961.016862     -0.007835                    
P 16   3834.629409  19937.318758 -16959.462534   -247.318269                    
V 16  -9867.647806  19273.634753  20737.807779     -0.007158                    
P 17  13062.693630 -14427.158838  18147.273037     90.810771                    
V 17  22774.960195  -1343.458392 -17877.189524     -0.033675                    
P 18 -16195.030536  16414.634408 -12485.010350    218.105283                    
V 18   2685.077163 -16807.994325 -25186.429512      0.018274                    
P 19  20088.327663   9081.052106 -15168.084881   -309.882626                    
V 19 -18784.802664   3209.741939 -22670.114407     -0.034848                    
P 20  16268.231908    137.050873  20823.713485     69.709048                    
V 20  -7472.838233  25901.610947   5695.346446      0.009221                    
P 21 -14631.247261   6474.767888 -20747.036627   -253.814057                    
V 21 -17200.027437 -21567.823317   4714.533946     -0.023817                    
P 22  -9738.824430  24627.723094   -400.769159    148.816269                    
V 22  -3480.612959  -2116.232970 -31058.023254      0.003441                    
P 23  25736.103638   1196.859001   7295.628530    157.775991                    
V 23  -8618.024027   3774.877384  29635.280622     -0.039063                    
P 25 -16688.940272  10838.230208  17518.949086     45.207496                    
V 25   6141.355453 -21521.337732  19181.748432      0.014644                    
P 26 -11043.342081 -13188.574223 -20956.553984   -257.934480                    
V 26  24941.879007  -2447.357445 -11617.611618      0.133542                    
P 27 -20218.416929 -16843.123127   5926.293958    438.446340                    
V 27  -3246.043246  -5978.841303 -30719.825548      0.040363                    
P 28  12188.929086 -23198.432690  -2960.813486    191.818836                    
V 28    434.720986   5057.732081 -32041.214941      0.036307                    
P 29 -26117.120646   4372.066881  -1702.069381    362.515563                    
V 29  -2540.867383  -2462.833383  31754.278810      0.040178                    
P 30  -1187.173549  25536.586259  -7606.625921   -380.571793                    
V 30  -4776.792883   8232.217977  29774.760254      0.191181                    
P 31   2908.518291  20980.267930  16058.776318    278.619741                    
V 31 -13726.019476 -14764.249656  22275.456847      0.024742                    
P 32  11500.025794  11309.605399  21352.818269   -494.809541                    
V 32 -11754.997237  23914.484482  -5897.635803     -0.039051                    
EOF
